{"spkid": "20459683", "covariance": {"epoch": "2457075.5", "labels": ["e", "q", "tp", "node", "peri", "i"], "data": [["2.754230893611742E-15", "-4.198589069142329E-15", "3.050236300506416E-13", "8.252019845561233E-14", "2.98559913947571E-14", "6.044920337988127E-15"], ["-4.198589069142329E-15", "6.514108930849855E-15", "-4.77620464943922E-13", "-1.389855780835314E-13", "-6.419662216643708E-14", "-2.851229473270001E-15"], ["3.050236300506416E-13", "-4.77620464943922E-13", "1.665838752189255E-10", "3.112467355963195E-11", "1.033632898886431E-10", "-1.634065212619934E-12"], ["8.252019845561233E-14", "-1.389855780835314E-13", "3.112467355963195E-11", "4.797151647440244E-9", "-4.761340610920158E-9", "-3.517619018999578E-10"], ["2.98559913947571E-14", "-6.419662216643708E-14", "1.033632898886431E-10", "-4.761340610920158E-9", "4.868069834005005E-9", "3.480910363251258E-10"], ["6.044920337988127E-15", "-2.851229473270001E-15", "-1.634065212619934E-12", "-3.517619018999578E-10", "3.480910363251258E-10", "1.280125729569682E-10"]], "elements": [{"title": "eccentricity", "value": ".4529979895432518", "units": null, "sigma": 5.24807668923744e-08, "name": "e", "label": "e"}, {"label": "q", "name": "q", "sigma": 8.07100299272021e-08, "units": "au", "title": "perihelion distance", "value": ".908809938092387"}, {"title": "time of perihelion passage", "value": "2457335.523842143945", "units": "TDB", "sigma": 1.290673759007e-05, "name": "tp", "label": "tp"}, {"label": "node", "units": "deg", "title": "longitude of the ascending node", "value": "102.9526181581548", "sigma": 6.92614730383367e-05, "name": "om"}, {"label": "peri", "value": "278.8940871332143", "title": "argument of perihelion", "units": "deg", "sigma": 6.97715546193791e-05, "name": "w"}, {"sigma": 1.13142641367863e-05, "name": "i", "title": "inclination", "value": "2.996008621453607", "units": "deg", "label": "i"}]}, "elements": [{"sigma": "5.2457E-8", "name": "e", "value": ".4529352231088632", "title": "eccentricity", "units": null, "label": "e"}, {"sigma": "2.3056E-8", "name": "a", "units": "au", "value": "1.662053167422695", "title": "semi-major axis", "label": "a"}, {"label": "q", "title": "perihelion distance", "value": ".909250745217304", "units": "au", "name": "q", "sigma": "8.0834E-8"}, {"label": "i", "sigma": "1.1317E-5", "name": "i", "title": "inclination; angle with respect to x-y ecliptic plane", "value": "2.996678148549588", "units": "deg"}, {"name": "om", "sigma": "6.9312E-5", "title": "longitude of the ascending node", "value": "102.8753324893643", "units": "deg", "label": "node"}, {"name": "w", "sigma": "6.9818E-5", "units": "deg", "title": "argument of perihelion", "value": "279.0254911275294", "label": "peri"}, {"name": "ma", "sigma": "3.8931E-5", "units": "deg", "title": "mean anomaly", "value": "337.898762803168", "label": "M"}, {"label": "tp", "sigma": "8.5626E-5", "name": "tp", "title": "time of perihelion passage", "value": "2461248.548505082596", "units": "TDB"}, {"label": "period", "units": "d", "title": "sidereal orbital period", "value": "782.6467665897882", "name": "per", "sigma": "1.6286E-5"}, {"label": "n", "value": ".4599776238374064", "title": "mean motion", "units": "deg/d", "name": "n", "sigma": "9.5713E-9"}, {"value": "2.414855589628087", "title": "aphelion distance", "units": "au", "sigma": "3.3499E-8", "name": "ad", "label": "Q"}], "epoch": "2461200.5"}